start=new Date('2022-07-10T00:00:00.000Z').valueOf();
sats=[{"FILE":"3510582","MEAN_ANOMALY":"292.1583","MEAN_MOTION":"15.06424037","COUNTRY_CODE":"US","MEAN_MOTION_DDOT":"0.0000000000000","RCS_SIZE":"LARGE","TLE_LINE1":"1 44720U 19074H   22190.42900042 -.00001345  00000-0 -71366-4 0  9995","ELEMENT_SET_NO":"999","NORAD_CAT_ID":"44720","OBJECT_TYPE":"PAYLOAD","TIME_SYSTEM":"UTC","OBJECT_NAME":"STARLINK-1014","SITE":"AFETR","OBJECT_ID":"2019-074H","ECCENTRICITY":"0.00016960","MEAN_ELEMENT_THEORY":"SGP4","ARG_OF_PERICENTER":"67.9586","GP_ID":"207728682","INCLINATION":"53.0545","TLE_LINE2":"2 44720  53.0545  78.7771 0001696  67.9586 292.1583 15.06424037146891","EPOCH":"2022-07-09T10:17:45.636288","EPHEMERIS_TYPE":"0","PERIOD":"95.591","REF_FRAME":"TEME","APOAPSIS":"548.314","PERIAPSIS":"545.965","REV_AT_EPOCH":"14689","CENTER_NAME":"EARTH","BSTAR":"-0.00007136600000","DECAY_DATE":null,"RA_OF_ASC_NODE":"78.7771","MEAN_MOTION_DOT":"-0.00001345","CLASSIFICATION_TYPE":"U","SEMIMAJOR_AXIS":"6925.275","LAUNCH_DATE":"2019-11-11"},{"CLASSIFICATION_TYPE":"U","MEAN_MOTION_DOT":"-0.00004330","LAUNCH_DATE":"2019-11-11","SEMIMAJOR_AXIS":"6925.356","DECAY_DATE":null,"BSTAR":"-0.00027195000000","RA_OF_ASC_NODE":"77.6528","APOAPSIS":"548.216","REF_FRAME":"TEME","REV_AT_EPOCH":"14692","CENTER_NAME":"EARTH","PERIAPSIS":"546.226","GP_ID":"207782429","ARG_OF_PERICENTER":"78.8982","PERIOD":"95.592","EPHEMERIS_TYPE":"0","INCLINATION":"53.0549","TLE_LINE2":"2 44721  53.0549  77.6528 0001437  78.8982 281.2168 15.06397504146928","EPOCH":"2022-07-09T16:25:21.803232","ECCENTRICITY":"0.00014370","MEAN_ELEMENT_THEORY":"SGP4","OBJECT_NAME":"STARLINK-1015","OBJECT_TYPE":"PAYLOAD","TIME_SYSTEM":"UTC","OBJECT_ID":"2019-074J","SITE":"AFETR","ELEMENT_SET_NO":"999","NORAD_CAT_ID":"44721","COUNTRY_CODE":"US","MEAN_MOTION":"15.06397504","FILE":"3510681","MEAN_ANOMALY":"281.2168","TLE_LINE1":"1 44721U 19074J   22190.68428013 -.00004330  00000-0 -27195-3 0  9994","MEAN_MOTION_DDOT":"0.0000000000000","RCS_SIZE":"LARGE"},{"MEAN_ELEMENT_THEORY":"SGP4","ECCENTRICITY":"0.00020590","OBJECT_ID":"2019-074K","SITE":"AFETR","OBJECT_TYPE":"PAYLOAD","TIME_SYSTEM":"UTC","OBJECT_NAME":"STARLINK-1016","NORAD_CAT_ID":"44722","ELEMENT_SET_NO":"999","MEAN_MOTION_DDOT":"0.0000000000000","RCS_SIZE":"LARGE","TLE_LINE1":"1 44722U 19074K   22190.68702038  .00003026  00000-0  22187-3 0  9992","FILE":"3510681","MEAN_ANOMALY":"275.4585","MEAN_MOTION":"15.06417590","COUNTRY_CODE":"US","SEMIMAJOR_AXIS":"6925.295","LAUNCH_DATE":"2019-11-11","MEAN_MOTION_DOT":"0.00003026","CLASSIFICATION_TYPE":"U","RA_OF_ASC_NODE":"77.6292","BSTAR":"0.00022187000000","DECAY_DATE":null,"PERIAPSIS":"545.734","REV_AT_EPOCH":"14693","CENTER_NAME":"EARTH","APOAPSIS":"548.586","REF_FRAME":"TEME","TLE_LINE2":"2 44722  53.0563  77.6292 0002059  84.6639 275.4585 15.06417590146935","INCLINATION":"53.0563","EPOCH":"2022-07-09T16:29:18.560832","EPHEMERIS_TYPE":"0","PERIOD":"95.591","ARG_OF_PERICENTER":"84.6639","GP_ID":"207781178"},{"TLE_LINE1":"1 44723U 19074L   22190.70270406 -.00000946  00000-0 -44621-4 0  9993","MEAN_MOTION_DDOT":"0.0000000000000","RCS_SIZE":"LARGE","MEAN_MOTION":"15.06405620","COUNTRY_CODE":"US","FILE":"3510681","MEAN_ANOMALY":"274.4729","NORAD_CAT_ID":"44723","ELEMENT_SET_NO":"999","OBJECT_ID":"2019-074L","SITE":"AFETR","OBJECT_NAME":"STARLINK-1017","OBJECT_TYPE":"PAYLOAD","TIME_SYSTEM":"UTC","MEAN_ELEMENT_THEORY":"SGP4","ECCENTRICITY":"0.00017230","PERIOD":"95.592","EPHEMERIS_TYPE":"0","INCLINATION":"53.0548","TLE_LINE2":"2 44723  53.0548  77.5757 0001723  85.6457 274.4729 15.06405620146930","EPOCH":"2022-07-09T16:51:53.630784","GP_ID":"207781427","ARG_OF_PERICENTER":"85.6457","REV_AT_EPOCH":"14693","CENTER_NAME":"EARTH","PERIAPSIS":"546.003","APOAPSIS":"548.390","REF_FRAME":"TEME","RA_OF_ASC_NODE":"77.5757","DECAY_DATE":null,"BSTAR":"-0.00004462100000","LAUNCH_DATE":"2019-11-11","SEMIMAJOR_AXIS":"6925.331","CLASSIFICATION_TYPE":"U","MEAN_MOTION_DOT":"-0.00000946"},{"CENTER_NAME":"EARTH","REV_AT_EPOCH":"14688","PERIAPSIS":"546.079","REF_FRAME":"TEME","APOAPSIS":"548.407","EPHEMERIS_TYPE":"0","PERIOD":"95.593","EPOCH":"2022-07-09T09:36:41.584320","TLE_LINE2":"2 44724  53.0547  78.9377 0001681  65.3671 294.7493 15.06390296146888","INCLINATION":"53.0547","GP_ID":"207729182","ARG_OF_PERICENTER":"65.3671","LAUNCH_DATE":"2019-11-11","SEMIMAJOR_AXIS":"6925.378","CLASSIFICATION_TYPE":"U","MEAN_MOTION_DOT":"-0.00001050","RA_OF_ASC_NODE":"78.9377","DECAY_DATE":null,"BSTAR":"-0.00005161400000","NORAD_CAT_ID":"44724","ELEMENT_SET_NO":"999","TLE_LINE1":"1 44724U 19074M   22190.40048130 -.00001050  00000-0 -51614-4 0  9995","RCS_SIZE":"LARGE","MEAN_MOTION_DDOT":"0.0000000000000","MEAN_MOTION":"15.06390296","COUNTRY_CODE":"US","MEAN_ANOMALY":"294.7493","FILE":"3510582","MEAN_ELEMENT_THEORY":"SGP4","ECCENTRICITY":"0.00016810","SITE":"AFETR","OBJECT_ID":"2019-074M","OBJECT_NAME":"STARLINK-1019","TIME_SYSTEM":"UTC","OBJECT_TYPE":"PAYLOAD"},{"MEAN_MOTION":"15.06388736","COUNTRY_CODE":"US","MEAN_ANOMALY":"291.0565","FILE":"3510681","TLE_LINE1":"1 44725U 19074N   22190.73775843 -.00000310  00000-0 -18894-5 0  9992","RCS_SIZE":"LARGE","MEAN_MOTION_DDOT":"0.0000000000000","ELEMENT_SET_NO":"999","NORAD_CAT_ID":"44725","OBJECT_NAME":"STARLINK-1020","TIME_SYSTEM":"UTC","OBJECT_TYPE":"PAYLOAD","OBJECT_ID":"2019-074N","SITE":"AFETR","ECCENTRICITY":"0.00016810","MEAN_ELEMENT_THEORY":"SGP4","GP_ID":"207781930","ARG_OF_PERICENTER":"69.0604","PERIOD":"95.593","EPHEMERIS_TYPE":"0","EPOCH":"2022-07-09T17:42:22.328352","INCLINATION":"53.0561","TLE_LINE2":"2 44725  53.0561  97.4027 0001681  69.0604 291.0565 15.06388736146651","APOAPSIS":"548.412","REF_FRAME":"TEME","CENTER_NAME":"EARTH","REV_AT_EPOCH":"14665","PERIAPSIS":"546.084","DECAY_DATE":null,"BSTAR":"-0.00000188940000","RA_OF_ASC_NODE":"97.4027","CLASSIFICATION_TYPE":"U","MEAN_MOTION_DOT":"-0.00000310","SEMIMAJOR_AXIS":"6925.383","LAUNCH_DATE":"2019-11-11"},{"EPHEMERIS_TYPE":"0","PERIOD":"95.593","EPOCH":"2022-07-09T17:29:02.863968","INCLINATION":"53.0544","TLE_LINE2":"2 44726  53.0544  77.4423 0001193  68.6089 291.5027 15.06393556146936","GP_ID":"207780679","ARG_OF_PERICENTER":"68.6089","CENTER_NAME":"EARTH","REV_AT_EPOCH":"14693","PERIAPSIS":"546.407","APOAPSIS":"548.060","REF_FRAME":"TEME","RA_OF_ASC_NODE":"77.4423","DECAY_DATE":null,"BSTAR":"-0.00025248000000","LAUNCH_DATE":"2019-11-11","SEMIMAJOR_AXIS":"6925.368","CLASSIFICATION_TYPE":"U","MEAN_MOTION_DOT":"-0.00004039","TLE_LINE1":"1 44726U 19074P   22190.72850537 -.00004039  00000-0 -25248-3 0  9997","RCS_SIZE":"LARGE","MEAN_MOTION_DDOT":"0.0000000000000","COUNTRY_CODE":"US","MEAN_MOTION":"15.06393556","MEAN_ANOMALY":"291.5027","FILE":"3510681","NORAD_CAT_ID":"44726","ELEMENT_SET_NO":"999","OBJECT_ID":"2019-074P","SITE":"AFETR","OBJECT_NAME":"STARLINK-1021","TIME_SYSTEM":"UTC","OBJECT_TYPE":"PAYLOAD","MEAN_ELEMENT_THEORY":"SGP4","ECCENTRICITY":"0.00011930"},{"CLASSIFICATION_TYPE":"U","MEAN_MOTION_DOT":"0.00001010","LAUNCH_DATE":"2019-11-11","SEMIMAJOR_AXIS":"6925.346","DECAY_DATE":null,"BSTAR":"0.00008669500000","RA_OF_ASC_NODE":"118.4852","APOAPSIS":"548.440","REF_FRAME":"TEME","REV_AT_EPOCH":"14635","CENTER_NAME":"EARTH","PERIAPSIS":"545.981","GP_ID":"207728433","ARG_OF_PERICENTER":"72.1355","EPHEMERIS_TYPE":"0","PERIOD":"95.592","TLE_LINE2":"2 44727  53.0553 118.4852 0001775  72.1355 287.9827 15.06400990146355","INCLINATION":"53.0553","EPOCH":"2022-07-09T11:58:37.089696","ECCENTRICITY":"0.00017750","MEAN_ELEMENT_THEORY":"SGP4","OBJECT_NAME":"STARLINK-1022","OBJECT_TYPE":"PAYLOAD","TIME_SYSTEM":"UTC","OBJECT_ID":"2019-074Q","SITE":"AFETR","ELEMENT_SET_NO":"999","NORAD_CAT_ID":"44727","COUNTRY_CODE":"US","MEAN_MOTION":"15.06400990","FILE":"3510582","MEAN_ANOMALY":"287.9827","TLE_LINE1":"1 44727U 19074Q   22190.49904039  .00001010  00000-0  86695-4 0  9997","MEAN_MOTION_DDOT":"0.0000000000000","RCS_SIZE":"LARGE"},{"RA_OF_ASC_NODE":"87.2258","DECAY_DATE":null,"BSTAR":"0.00081166000000","LAUNCH_DATE":"2019-11-11","SEMIMAJOR_AXIS":"6901.287","CLASSIFICATION_TYPE":"U","MEAN_MOTION_DOT":"0.00014756","PERIOD":"95.094","EPHEMERIS_TYPE":"0","EPOCH":"2022-07-09T09:42:50.472576","TLE_LINE2":"2 44729  53.0035  87.2258 0002475  65.3735 294.7514 15.14284946146730","INCLINATION":"53.0035","GP_ID":"207728683","ARG_OF_PERICENTER":"65.3735","CENTER_NAME":"EARTH","REV_AT_EPOCH":"14673","PERIAPSIS":"521.444","APOAPSIS":"524.860","REF_FRAME":"TEME","SITE":"AFETR","OBJECT_ID":"2019-074S","OBJECT_NAME":"STARLINK-1024","TIME_SYSTEM":"UTC","OBJECT_TYPE":"PAYLOAD","MEAN_ELEMENT_THEORY":"SGP4","ECCENTRICITY":"0.00024750","TLE_LINE1":"1 44729U 19074S   22190.40475084  .00014756  00000-0  81166-3 0  9991","RCS_SIZE":"LARGE","MEAN_MOTION_DDOT":"0.0000000000000","MEAN_MOTION":"15.14284946","COUNTRY_CODE":"US","MEAN_ANOMALY":"294.7514","FILE":"3510582","NORAD_CAT_ID":"44729","ELEMENT_SET_NO":"999"},{"NORAD_CAT_ID":"44731","ELEMENT_SET_NO":"999","MEAN_MOTION_DDOT":"0.0000000000000","RCS_SIZE":"LARGE","TLE_LINE1":"1 44731U 19074U   22190.67322002 -.00008211  00000-0 -53311-3 0  9996","FILE":"3510681","MEAN_ANOMALY":"275.2227","MEAN_MOTION":"15.06391968","COUNTRY_CODE":"US","MEAN_ELEMENT_THEORY":"SGP4","ECCENTRICITY":"0.00014490","SITE":"AFETR","OBJECT_ID":"2019-074U","OBJECT_TYPE":"PAYLOAD","TIME_SYSTEM":"UTC","OBJECT_NAME":"STARLINK-1026","PERIAPSIS":"546.235","REV_AT_EPOCH":"14692","CENTER_NAME":"EARTH","REF_FRAME":"TEME","APOAPSIS":"548.242","TLE_LINE2":"2 44731  53.0563  77.7042 0001449  84.8928 275.2227 15.06391968146924","INCLINATION":"53.0563","EPOCH":"2022-07-09T16:09:26.209728","PERIOD":"95.593","EPHEMERIS_TYPE":"0","ARG_OF_PERICENTER":"84.8928","GP_ID":"207782430","LAUNCH_DATE":"2019-11-11","SEMIMAJOR_AXIS":"6925.373","MEAN_MOTION_DOT":"-0.00008211","CLASSIFICATION_TYPE":"U","RA_OF_ASC_NODE":"77.7042","BSTAR":"-0.00053311000000","DECAY_DATE":null}];
